STARLINK-30494          
1 57970U 23151G   26068.36049035 -.00001272  00000+0 -35691-4 0  9993
2 57970  43.0027 192.4566 0001155 241.5536 118.5200 15.28417441137406
STARLINK-33965          
1 64755U 25147A   26068.89504123  .00039538  00000+0  13399-2 0  9994
2 64755  53.1584 241.7689 0000992  67.4699 292.6407 15.30202192 38829
